NORAD_CAT_ID,OBJECT_NAME,OBJECT_TYPE,EPOCH,MEAN_MOTION,ECCENTRICITY,INCLINATION,RA_OF_ASC_NODE,ARG_OF_PERICENTER,MEAN_ANOMALY,BSTAR,MEAN_MOTION_DOT,MEAN_MOTION_DDOT,TLE_LINE0,TLE_LINE1,TLE_LINE2,SEMIMAJOR_AXIS,PERIOD,APOGEE,PERIGEE,DECAYED
50819.0,STARLINK-3327,PAYLOAD,2023-02-06 19:50:19,15.08849624,0.0001015,53.2133,187.8113,95.4525,264.6583,7.0403e-05,8.33e-06,0.0,0 STARLINK-3327,1 50819U 22001S   23037.82661753  .00000833  00000-0  70403-4 0  9993,2 50819  53.2133 187.8113 0001015  95.4525 264.6583 15.08849624 61499,6917.851,95.437,540.418,539.014,0.0
50819.0,STARLINK-3327,PAYLOAD,2023-02-07 13:19:34,15.08840718,0.0001237,53.2128,184.5398,108.5803,251.5324,6.8721e-05,8.06e-06,0.0,0 STARLINK-3327,1 50819U 22001S   23038.55526385  .00000806  00000-0  68721-4 0  9995,2 50819  53.2128 184.5398 0001237 108.5803 251.5324 15.08840718 60406,6917.878,95.438,540.599,538.887,0.0
50819.0,STARLINK-3327,PAYLOAD,2023-02-07 14:54:57,15.08842029,0.0001339,53.2133,184.2422,113.4922,246.6211,8.2194e-05,1.021e-05,0.0,0 STARLINK-3327,1 50819U 22001S   23038.62150221  .00001021  00000-0  82194-4 0  9995,2 50819  53.2133 184.2422 0001339 113.4922 246.6211 15.08842029 61618,6917.874,95.437,540.665,538.813,0.0
50819.0,STARLINK-3327,PAYLOAD,2023-02-07 16:30:20,15.08845395,0.0001185,53.2147,183.946,109.9709,250.141,6.5598e-05,7.56e-06,0.0,0 STARLINK-3327,1 50819U 22001S   23038.68774081  .00000756  00000-0  65598-4 0  9990,2 50819  53.2147 183.9460 0001185 109.9709 250.1410 15.08845395 60421,6917.864,95.437,540.549,538.909,0.0
50819.0,STARLINK-3327,PAYLOAD,2023-02-08 13:10:22,15.08841149,0.000146,53.2167,180.0819,105.8392,254.2761,6.9878e-06,-1.77e-06,0.0,0 STARLINK-3327,1 50819U 22001S   23039.54886683 -.00000177  00000-0  69878-5 0  9992,2 50819  53.2167 180.0819 0001460 105.8392 254.2761 15.08841149 60559,6917.877,95.437,540.752,538.732,0.0
50819.0,STARLINK-3327,PAYLOAD,2023-02-08 14:45:45,15.08843306,0.0001687,53.2166,179.7847,108.8416,251.276,-9.9416e-06,-4.46e-06,0.0,0 STARLINK-3327,1 50819U 22001S   23039.61510584 -.00000446  00000-0 -99416-5 0  9995,2 50819  53.2166 179.7847 0001687 108.8416 251.2760 15.08843306 60569,6917.87,95.437,540.902,538.568,0.0
50819.0,STARLINK-3327,PAYLOAD,2023-02-09 01:53:27,15.08842814,0.0001439,53.2152,177.7027,90.1834,269.9322,-3.9418e-05,-9.15e-06,0.0,0 STARLINK-3327,1 50819U 22001S   23040.07878686 -.00000915  00000-0 -39418-4 0  9993,2 50819  53.2152 177.7027 0001439  90.1834 269.9322 15.08842814 61838,6917.872,95.437,540.732,538.741,0.0
50819.0,STARLINK-3327,PAYLOAD,2023-02-09 14:36:31,15.08845889,0.0001534,53.213,175.3207,137.597,222.5141,7.1471e-05,8.5e-06,0.0,0 STARLINK-3327,1 50819U 22001S   23040.60870115  .00000850  00000-0  71471-4 0  9992,2 50819  53.2130 175.3207 0001534 137.5970 222.5141 15.08845889 60716,6917.862,95.437,540.789,538.666,0.0
50819.0,STARLINK-3327,PAYLOAD,2023-02-10 01:44:14,15.08838688,0.000132,53.2152,173.2424,100.3793,259.7348,1.6714e-05,-2.2e-07,0.0,0 STARLINK-3327,1 50819U 22001S   23041.07239030 -.00000022  00000-0  16714-4 0  9990,2 50819  53.2152 173.2424 0001320 100.3793 259.7348 15.08838688 60789,6917.884,95.438,540.663,538.836,0.0
50819.0,STARLINK-3327,PAYLOAD,2023-02-10 12:51:56,15.08833385,0.0001444,53.2155,171.1609,102.6617,257.4536,8.0157e-05,9.88e-06,0.0,0 STARLINK-3327,1 50819U 22001S   23041.53607481  .00000988  00000-0  80157-4 0  9992,2 50819  53.2155 171.1609 0001444 102.6617 257.4536 15.08833385 62056,6917.901,95.438,540.765,538.767,0.0
50819.0,STARLINK-3327,PAYLOAD,2023-02-10 16:02:41,15.08851527,0.0001333,53.2144,170.5641,104.8711,255.2429,0.00017042,2.426e-05,0.0,0 STARLINK-3327,1 50819U 22001S   23041.66854052  .00002426  00000-0  17042-3 0  9995,2 50819  53.2144 170.5641 0001333 104.8711 255.2429 15.08851527 60872,6917.845,95.437,540.632,538.788,0.0
50819.0,STARLINK-3327,PAYLOAD,2023-02-11 17:28:53,15.08841047,0.0001457,53.2145,165.8071,88.67,271.4459,-2.9422e-06,-3.35e-06,0.0,0 STARLINK-3327,1 50819U 22001S   23042.72839545 -.00000335  00000-0 -29422-5 0  9999,2 50819  53.2145 165.8071 0001457  88.6700 271.4459 15.08841047 62232,6917.877,95.437,540.75,538.734,0.0
50819.0,STARLINK-3327,PAYLOAD,2023-02-12 07:47:23,15.0881852,0.0001383,53.214,163.1327,81.8319,278.283,-3.3244e-05,-8.17e-06,0.0,0 STARLINK-3327,1 50819U 22001S   23043.32457696 -.00000817  00000-0 -33244-4 0  9990,2 50819  53.2140 163.1327 0001383  81.8319 278.2830 15.08818520 62329,6917.946,95.439,540.768,538.854,0.0
50819.0,STARLINK-3327,PAYLOAD,2023-02-12 14:08:55,15.08830963,0.0001314,53.2153,161.9419,79.0673,281.0467,5.9258e-05,6.55e-06,0.0,0 STARLINK-3327,1 50819U 22001S   23043.58953016  .00000655  00000-0  59258-4 0  9996,2 50819  53.2153 161.9419 0001314  79.0673 281.0467 15.08830963 62364,6917.908,95.438,540.682,538.864,0.0
50819.0,STARLINK-3327,PAYLOAD,2023-02-13 01:16:36,15.08850346,0.0001342,53.2139,159.8589,82.934,277.1805,7.8537e-05,9.63e-06,0.0,0 STARLINK-3327,1 50819U 22001S   23044.05319620  .00000963  00000-0  78537-4 0  9999,2 50819  53.2139 159.8589 0001342  82.9340 277.1805 15.08850346 62434,6917.849,95.437,540.642,538.785,0.0
50819.0,STARLINK-3327,PAYLOAD,2023-02-13 13:59:41,15.08863456,0.0001313,53.2136,157.48,75.4287,284.6851,0.00044292,6.773e-05,0.0,0 STARLINK-3327,1 50819U 22001S   23044.58311443  .00006773  00000-0  44292-3 0  9997,2 50819  53.2136 157.4800 0001313  75.4287 284.6851 15.08863456 61312,6917.809,95.436,540.582,538.765,0.0
50819.0,STARLINK-3327,PAYLOAD,2023-02-14 10:39:42,15.08845359,0.000173,53.2128,153.615,70.5943,289.5236,0.00030144,4.513e-05,0.0,0 STARLINK-3327,1 50819U 22001S   23045.44424342  .00004513  00000-0  30144-3 0  9997,2 50819  53.2128 153.6150 0001730  70.5943 289.5236 15.08845359 62647,6917.864,95.437,540.926,538.532,0.0
50819.0,STARLINK-3327,PAYLOAD,2023-02-14 13:50:28,15.08851616,0.000141,53.2129,153.0203,78.329,281.786,0.00035226,5.324e-05,0.0,0 STARLINK-3327,1 50819U 22001S   23045.57671860  .00005324  00000-0  35226-3 0  9997,2 50819  53.2129 153.0203 0001410  78.3290 281.7860 15.08851616 61466,6917.845,95.437,540.685,538.734,0.0
50819.0,STARLINK-3327,PAYLOAD,2023-02-15 04:08:56,15.08842273,8.81e-05,53.2154,150.344,63.3004,296.8078,-3.0196e-05,-7.68e-06,0.0,0 STARLINK-3327,1 50819U 22001S   23046.17287821 -.00000768  00000-0 -30196-4 0  9995,2 50819  53.2154 150.3440 0000881  63.3004 296.8078 15.08842273 62755,6917.873,95.437,540.348,539.129,0.0
50819.0,STARLINK-3327,PAYLOAD,2023-02-15 13:41:14,15.08861078,0.0001227,53.2133,148.559,86.2072,273.906,0.00022143,3.24e-05,0.0,0 STARLINK-3327,1 50819U 22001S   23046.57030782  .00003240  00000-0  22143-3 0  9999,2 50819  53.2133 148.5590 0001227  86.2072 273.9060 15.08861078 62819,6917.816,95.436,540.53,538.832,0.0
50819.0,STARLINK-3327,PAYLOAD,2023-02-15 16:52:00,15.08861509,0.0001224,53.213,147.9656,85.9762,274.137,0.00011306,1.513e-05,0.0,0 STARLINK-3327,1 50819U 22001S   23046.70278510  .00001513  00000-0  11306-3 0  9997,2 50819  53.2130 147.9656 0001224  85.9762 274.1370 15.08861509 61636,6917.815,95.436,540.526,538.833,0.0
50819.0,STARLINK-3327,PAYLOAD,2023-02-16 07:10:30,15.08826072,8.75e-05,53.215,145.2902,84.8577,275.2515,-4.4951e-05,-1.003e-05,0.0,0 STARLINK-3327,1 50819U 22001S   23047.29896462 -.00001003  00000-0 -44951-4 0  9993,2 50819  53.2150 145.2902 0000875  84.8577 275.2515 15.08826072 62928,6917.923,95.438,540.393,539.183,0.0
50819.0,STARLINK-3327,PAYLOAD,2023-02-16 13:32:02,15.08841344,9.64e-05,53.2134,144.1006,73.0897,287.02,0.00013803,1.91e-05,0.0,0 STARLINK-3327,1 50819U 22001S   23047.56391721  .00001910  00000-0  13803-3 0  9997,2 50819  53.2134 144.1006 0000964  73.0897 287.0200 15.08841344 62962,6917.876,95.437,540.408,539.074,0.0
50819.0,STARLINK-3327,PAYLOAD,2023-02-16 16:42:48,15.08849783,0.0001118,53.2147,143.503,64.1446,295.9661,0.00029018,4.335e-05,0.0,0 STARLINK-3327,1 50819U 22001S   23047.69639377  .00004335  00000-0  29018-3 0  9992,2 50819  53.2147 143.5030 0001118  64.1446 295.9661 15.08849783 61782,6917.85,95.437,540.489,538.942,0.0
50819.0,STARLINK-3327,PAYLOAD,2023-02-17 05:25:54,15.08832375,0.000118,53.2134,141.1243,103.5257,256.5866,-5.2835e-05,-1.128e-05,0.0,0 STARLINK-3327,1 50819U 22001S   23048.22632152 -.00001128  00000-0 -52835-4 0  9999,2 50819  53.2134 141.1243 0001180 103.5257 256.5866 15.08832375 63067,6917.904,95.438,540.585,538.952,0.0
50819.0,STARLINK-3327,PAYLOAD,2023-02-17 10:12:03,15.08839458,0.0001303,53.2132,140.23,117.9498,242.1627,0.00011335,1.517e-05,0.0,0 STARLINK-3327,1 50819U 22001S   23048.42503914  .00001517  00000-0  11335-3 0  9993,2 50819  53.2132 140.2300 0001303 117.9498 242.1627 15.08839458 61896,6917.882,95.438,540.648,538.846,0.0
50819.0,STARLINK-3327,PAYLOAD,2023-02-17 14:58:12,15.08842748,0.0001356,53.213,139.3374,122.7475,237.3648,0.00018954,2.73e-05,0.0,0 STARLINK-3327,1 50819U 22001S   23048.62375813  .00002730  00000-0  18954-3 0  9992,2 50819  53.2130 139.3374 0001356 122.7475 237.3648 15.08842748 63124,6917.872,95.437,540.675,538.799,0.0
50819.0,STARLINK-3327,PAYLOAD,2023-02-18 05:16:41,15.08828163,0.0001126,53.2138,136.6642,107.4691,252.6424,0.00011276,1.507e-05,0.0,0 STARLINK-3327,1 50819U 22001S   23049.21992793  .00001507  00000-0  11276-3 0  9991,2 50819  53.2138 136.6642 0001126 107.4691 252.6424 15.08828163 63212,6917.917,95.438,540.561,539.003,0.0
50819.0,STARLINK-3327,PAYLOAD,2023-02-18 10:02:51,15.08833875,0.0001106,53.2136,135.7715,106.1666,253.9448,0.00016512,2.341e-05,0.0,0 STARLINK-3327,1 50819U 22001S   23049.41864636  .00002341  00000-0  16512-3 0  9992,2 50819  53.2136 135.7715 0001106 106.1666 253.9448 15.08833875 62043,6917.899,95.438,540.529,538.999,0.0
50819.0,STARLINK-3327,PAYLOAD,2023-02-18 14:49:00,15.08838648,0.0001124,53.2137,134.8791,107.2499,252.8616,0.0001883,2.71e-05,0.0,0 STARLINK-3327,1 50819U 22001S   23049.61736460  .00002710  00000-0  18830-3 0  9992,2 50819  53.2137 134.8791 0001124 107.2499 252.8616 15.08838648 63278,6917.885,95.438,540.527,538.972,0.0
